SL-8 R/B                
1 19257U 88053B   26082.44200860  .00000331  00000+0  11571-3 0  9994
2 19257  74.0451  87.1142 0021529 264.5940 258.2138 14.38925040978570
COSMOS 1975             
1 19573U 88093A   26082.47565448  .00007636  00000+0  27562-3 0  9990
2 19573  82.5164 103.8413 0013201 118.6865 241.5703 15.28250098 21516
SL-14 R/B               
1 19574U 88093B   26082.34491525  .00000613  00000+0  67681-4 0  9996
2 19574  82.5331  29.2263 0020607 357.5392 118.5770 14.85672444  3044
SL-16 R/B               
1 19650U 88102B   26082.46680262 -.00000238  00000+0 -95912-4 0  9996
2 19650  70.9982 122.5095 0014909 340.3601  19.6946 14.16155054928840
INTERCOSMOS 24          
1 20261U 89080A   26082.38525159  .00000556  00000+0  16491-3 0  9991
2 20261  82.6014  95.4831 1186753 261.0005  85.5228 12.59576083668522
SL-14 R/B               
1 20262U 89080C   26082.47915673  .00000453  00000+0  12872-3 0  9991
2 20262  82.5965 164.3378 1230855 153.2452 213.7959 12.50507556661877
DELTA 1 R/B             
1 20323U 89089B   26082.55390026  .00000320  00000+0  87602-4 0  9993
2 20323  97.0695 287.7863 0070678  79.0434 281.8705 14.50674138897749
ARIANE 40 R/B           
1 20443U 90005H   26082.43374776  .00000268  00000+0  98829-4 0  9991
2 20443  98.3055 142.6838 0010711 157.6221 202.5437 14.39879065894782
DELTA 2 R/B(1)          
1 20453U 90008B   26082.29022840  .00073697  00000+0  82029-3 0  9991
2 20453  35.6034  85.4758 0079945  25.1791 335.2813 15.57716328928259
COSMOS 2058             
1 20465U 90010A   26082.35287519  .00005129  00000+0  30170-3 0  9995
2 20465  82.4682  33.9637 0007597 293.1425  66.9005 15.11438970944309
SL-14 R/B               
1 20466U 90010B   26082.44595350  .00000477  00000+0  54916-4 0  9997
2 20466  82.4989 254.4630 0018383 253.3912 106.5284 14.83580844930522
SL-14 R/B               
1 20511U 90018B   26082.40948228  .00000491  00000+0  58610-4 0  9999
2 20511  82.5228 210.2676 0017292  50.3754 309.8983 14.82158381924610
HST                     
1 20580U 90037B   26082.31804240  .00008388  00000+0  27547-3 0  9998
2 20580  28.4722 307.0186 0001482 281.8932  78.1497 15.29689938775404
SL-16 R/B               
1 20625U 90046B   26082.27003173  .00000142  00000+0  97784-4 0  9990
2 20625  70.9954 269.3906 0016251 281.8192  78.1107 14.15012758850317
COSMOS 2084             
1 20663U 90055A   26082.53581640  .00002490  00000+0  18479-3 0  9992
2 20663  62.7894 288.3505 0014915 194.0075 166.0614 15.05722611938400
SL-6 R/B(2)             
1 20666U 90055D   26082.07191533  .00002736  00000+0  21192-3 0  9991
2 20666  62.7831 208.3389 0026985 350.1703   9.8864 15.03658176940203
SL-8 R/B                
1 20775U 90078B   26081.94566125  .00016807  00000+0  49742-3 0  9990
2 20775  82.9019 239.3825 0359474 329.3321  28.7310 14.89473766811274
