[{"OBJECT_NAME":"SL-8 R/B","OBJECT_ID":"1988-053B","EPOCH":"2026-03-23T10:36:29.543040","MEAN_MOTION":14.3892504,"ECCENTRICITY":0.0021529,"INCLINATION":74.0451,"RA_OF_ASC_NODE":87.1142,"ARG_OF_PERICENTER":264.594,"MEAN_ANOMALY":258.2138,"EPHEMERIS_TYPE":0,"CLASSIFICATION_TYPE":"U","NORAD_CAT_ID":19257,"ELEMENT_SET_NO":999,"REV_AT_EPOCH":97857,"BSTAR":0.00011571,"MEAN_MOTION_DOT":3.31e-6,"MEAN_MOTION_DDOT":0},{"OBJECT_NAME":"COSMOS 1975","OBJECT_ID":"1988-093A","EPOCH":"2026-03-23T11:24:56.547072","MEAN_MOTION":15.28250098,"ECCENTRICITY":0.0013201,"INCLINATION":82.5164,"RA_OF_ASC_NODE":103.8413,"ARG_OF_PERICENTER":118.6865,"MEAN_ANOMALY":241.5703,"EPHEMERIS_TYPE":0,"CLASSIFICATION_TYPE":"U","NORAD_CAT_ID":19573,"ELEMENT_SET_NO":999,"REV_AT_EPOCH":2151,"BSTAR":0.00027562,"MEAN_MOTION_DOT":7.636e-5,"MEAN_MOTION_DDOT":0},{"OBJECT_NAME":"SL-14 R/B","OBJECT_ID":"1988-093B","EPOCH":"2026-03-23T08:16:40.677600","MEAN_MOTION":14.85672444,"ECCENTRICITY":0.0020607,"INCLINATION":82.5331,"RA_OF_ASC_NODE":29.2263,"ARG_OF_PERICENTER":357.5392,"MEAN_ANOMALY":118.577,"EPHEMERIS_TYPE":0,"CLASSIFICATION_TYPE":"U","NORAD_CAT_ID":19574,"ELEMENT_SET_NO":999,"REV_AT_EPOCH":304,"BSTAR":6.7681e-5,"MEAN_MOTION_DOT":6.13e-6,"MEAN_MOTION_DDOT":0},{"OBJECT_NAME":"SL-16 R/B","OBJECT_ID":"1988-102B","EPOCH":"2026-03-23T11:12:11.746368","MEAN_MOTION":14.16155054,"ECCENTRICITY":0.0014909,"INCLINATION":70.9982,"RA_OF_ASC_NODE":122.5095,"ARG_OF_PERICENTER":340.3601,"MEAN_ANOMALY":19.6946,"EPHEMERIS_TYPE":0,"CLASSIFICATION_TYPE":"U","NORAD_CAT_ID":19650,"ELEMENT_SET_NO":999,"REV_AT_EPOCH":92884,"BSTAR":-9.5912e-5,"MEAN_MOTION_DOT":-2.38e-6,"MEAN_MOTION_DDOT":0},{"OBJECT_NAME":"INTERCOSMOS 24","OBJECT_ID":"1989-080A","EPOCH":"2026-03-23T09:14:45.737376","MEAN_MOTION":12.59576083,"ECCENTRICITY":0.1186753,"INCLINATION":82.6014,"RA_OF_ASC_NODE":95.4831,"ARG_OF_PERICENTER":261.0005,"MEAN_ANOMALY":85.5228,"EPHEMERIS_TYPE":0,"CLASSIFICATION_TYPE":"U","NORAD_CAT_ID":20261,"ELEMENT_SET_NO":999,"REV_AT_EPOCH":66852,"BSTAR":0.00016491,"MEAN_MOTION_DOT":5.56e-6,"MEAN_MOTION_DDOT":0},{"OBJECT_NAME":"SL-14 R/B","OBJECT_ID":"1989-080C","EPOCH":"2026-03-23T11:29:59.141472","MEAN_MOTION":12.50507556,"ECCENTRICITY":0.1230855,"INCLINATION":82.5965,"RA_OF_ASC_NODE":164.3378,"ARG_OF_PERICENTER":153.2452,"MEAN_ANOMALY":213.7959,"EPHEMERIS_TYPE":0,"CLASSIFICATION_TYPE":"U","NORAD_CAT_ID":20262,"ELEMENT_SET_NO":999,"REV_AT_EPOCH":66187,"BSTAR":0.00012872,"MEAN_MOTION_DOT":4.53e-6,"MEAN_MOTION_DDOT":0},{"OBJECT_NAME":"DELTA 1 R/B","OBJECT_ID":"1989-089B","EPOCH":"2026-03-23T13:17:36.982464","MEAN_MOTION":14.50674138,"ECCENTRICITY":0.0070678,"INCLINATION":97.0695,"RA_OF_ASC_NODE":287.7863,"ARG_OF_PERICENTER":79.0434,"MEAN_ANOMALY":281.8705,"EPHEMERIS_TYPE":0,"CLASSIFICATION_TYPE":"U","NORAD_CAT_ID":20323,"ELEMENT_SET_NO":999,"REV_AT_EPOCH":89774,"BSTAR":8.7602e-5,"MEAN_MOTION_DOT":3.2e-6,"MEAN_MOTION_DDOT":0},{"OBJECT_NAME":"ARIANE 40 R/B","OBJECT_ID":"1990-005H","EPOCH":"2026-03-23T10:24:35.806464","MEAN_MOTION":14.39879065,"ECCENTRICITY":0.0010711,"INCLINATION":98.3055,"RA_OF_ASC_NODE":142.6838,"ARG_OF_PERICENTER":157.6221,"MEAN_ANOMALY":202.5437,"EPHEMERIS_TYPE":0,"CLASSIFICATION_TYPE":"U","NORAD_CAT_ID":20443,"ELEMENT_SET_NO":999,"REV_AT_EPOCH":89478,"BSTAR":9.8829e-5,"MEAN_MOTION_DOT":2.68e-6,"MEAN_MOTION_DDOT":0},{"OBJECT_NAME":"DELTA 2 R/B(1)","OBJECT_ID":"1990-008B","EPOCH":"2026-03-23T06:57:55.733760","MEAN_MOTION":15.57716328,"ECCENTRICITY":0.0079945,"INCLINATION":35.6034,"RA_OF_ASC_NODE":85.4758,"ARG_OF_PERICENTER":25.1791,"MEAN_ANOMALY":335.2813,"EPHEMERIS_TYPE":0,"CLASSIFICATION_TYPE":"U","NORAD_CAT_ID":20453,"ELEMENT_SET_NO":999,"REV_AT_EPOCH":92825,"BSTAR":0.00082029,"MEAN_MOTION_DOT":0.00073697,"MEAN_MOTION_DDOT":0},{"OBJECT_NAME":"COSMOS 2058","OBJECT_ID":"1990-010A","EPOCH":"2026-03-23T08:28:08.416416","MEAN_MOTION":15.1143897,"ECCENTRICITY":0.0007597,"INCLINATION":82.4682,"RA_OF_ASC_NODE":33.9637,"ARG_OF_PERICENTER":293.1425,"MEAN_ANOMALY":66.9005,"EPHEMERIS_TYPE":0,"CLASSIFICATION_TYPE":"U","NORAD_CAT_ID":20465,"ELEMENT_SET_NO":999,"REV_AT_EPOCH":94430,"BSTAR":0.0003017,"MEAN_MOTION_DOT":5.129e-5,"MEAN_MOTION_DDOT":0},{"OBJECT_NAME":"SL-14 R/B","OBJECT_ID":"1990-010B","EPOCH":"2026-03-23T10:42:10.382400","MEAN_MOTION":14.83580844,"ECCENTRICITY":0.0018383,"INCLINATION":82.4989,"RA_OF_ASC_NODE":254.463,"ARG_OF_PERICENTER":253.3912,"MEAN_ANOMALY":106.5284,"EPHEMERIS_TYPE":0,"CLASSIFICATION_TYPE":"U","NORAD_CAT_ID":20466,"ELEMENT_SET_NO":999,"REV_AT_EPOCH":93052,"BSTAR":5.4916e-5,"MEAN_MOTION_DOT":4.77e-6,"MEAN_MOTION_DDOT":0},{"OBJECT_NAME":"SL-14 R/B","OBJECT_ID":"1990-018B","EPOCH":"2026-03-23T09:49:39.268992","MEAN_MOTION":14.82158381,"ECCENTRICITY":0.0017292,"INCLINATION":82.5228,"RA_OF_ASC_NODE":210.2676,"ARG_OF_PERICENTER":50.3754,"MEAN_ANOMALY":309.8983,"EPHEMERIS_TYPE":0,"CLASSIFICATION_TYPE":"U","NORAD_CAT_ID":20511,"ELEMENT_SET_NO":999,"REV_AT_EPOCH":92461,"BSTAR":5.861e-5,"MEAN_MOTION_DOT":4.91e-6,"MEAN_MOTION_DDOT":0},{"OBJECT_NAME":"HST","OBJECT_ID":"1990-037B","EPOCH":"2026-03-23T07:37:58.863360","MEAN_MOTION":15.29689938,"ECCENTRICITY":0.0001482,"INCLINATION":28.4722,"RA_OF_ASC_NODE":307.0186,"ARG_OF_PERICENTER":281.8932,"MEAN_ANOMALY":78.1497,"EPHEMERIS_TYPE":0,"CLASSIFICATION_TYPE":"U","NORAD_CAT_ID":20580,"ELEMENT_SET_NO":999,"REV_AT_EPOCH":77540,"BSTAR":0.00027547,"MEAN_MOTION_DOT":8.388e-5,"MEAN_MOTION_DDOT":0},{"OBJECT_NAME":"SL-16 R/B","OBJECT_ID":"1990-046B","EPOCH":"2026-03-23T06:28:50.741472","MEAN_MOTION":14.15012758,"ECCENTRICITY":0.0016251,"INCLINATION":70.9954,"RA_OF_ASC_NODE":269.3906,"ARG_OF_PERICENTER":281.8192,"MEAN_ANOMALY":78.1107,"EPHEMERIS_TYPE":0,"CLASSIFICATION_TYPE":"U","NORAD_CAT_ID":20625,"ELEMENT_SET_NO":999,"REV_AT_EPOCH":85031,"BSTAR":9.7784e-5,"MEAN_MOTION_DOT":1.42e-6,"MEAN_MOTION_DDOT":0},{"OBJECT_NAME":"COSMOS 2084","OBJECT_ID":"1990-055A","EPOCH":"2026-03-23T12:51:34.536960","MEAN_MOTION":15.05722611,"ECCENTRICITY":0.0014915,"INCLINATION":62.7894,"RA_OF_ASC_NODE":288.3505,"ARG_OF_PERICENTER":194.0075,"MEAN_ANOMALY":166.0614,"EPHEMERIS_TYPE":0,"CLASSIFICATION_TYPE":"U","NORAD_CAT_ID":20663,"ELEMENT_SET_NO":999,"REV_AT_EPOCH":93840,"BSTAR":0.00018479,"MEAN_MOTION_DOT":2.49e-5,"MEAN_MOTION_DDOT":0},{"OBJECT_NAME":"SL-6 R/B(2)","OBJECT_ID":"1990-055D","EPOCH":"2026-03-23T01:43:33.484512","MEAN_MOTION":15.03658176,"ECCENTRICITY":0.00269851,"INCLINATION":62.7831,"RA_OF_ASC_NODE":208.3389,"ARG_OF_PERICENTER":350.1703,"MEAN_ANOMALY":9.8864,"EPHEMERIS_TYPE":0,"CLASSIFICATION_TYPE":"U","NORAD_CAT_ID":20666,"ELEMENT_SET_NO":999,"REV_AT_EPOCH":94020,"BSTAR":0.00021191574,"MEAN_MOTION_DOT":2.736e-5,"MEAN_MOTION_DDOT":0},{"OBJECT_NAME":"SL-8 R/B","OBJECT_ID":"1990-078B","EPOCH":"2026-03-22T22:41:45.132000","MEAN_MOTION":14.89473766,"ECCENTRICITY":0.03594746,"INCLINATION":82.9019,"RA_OF_ASC_NODE":239.3825,"ARG_OF_PERICENTER":329.3321,"MEAN_ANOMALY":28.731,"EPHEMERIS_TYPE":0,"CLASSIFICATION_TYPE":"U","NORAD_CAT_ID":20775,"ELEMENT_SET_NO":999,"REV_AT_EPOCH":81127,"BSTAR":0.0004974166,"MEAN_MOTION_DOT":0.00016807,"MEAN_MOTION_DDOT":0}]
